[
  {
    "OBJECT_NAME": "STARLINK-31293",
    "OBJECT_ID": "2024-027X",
    "EPOCH": "2025-06-14T06:39:57.871296",
    "MEAN_MOTION": 15.30193222,
    "ECCENTRICITY": 0.0001511,
    "INCLINATION": 53.1628,
    "RA_OF_ASC_NODE": 116.3378,
    "ARG_OF_PERICENTER": 90.7647,
    "MEAN_ANOMALY": 269.3527,
    "EPHEMERIS_TYPE": 0,
    "CLASSIFICATION_TYPE": "U",
    "NORAD_CAT_ID": 58952,
    "ELEMENT_SET_NO": 999,
    "REV_AT_EPOCH": 7623,
    "BSTAR": 8.0476e-06,
    "MEAN_MOTION_DOT": -1.21e-06,
    "MEAN_MOTION_DDOT": 0
  },
  {
    "OBJECT_NAME": "STARLINK-31373",
    "OBJECT_ID": "2024-031A",
    "EPOCH": "2025-06-14T13:08:57.430752",
    "MEAN_MOTION": 15.30179331,
    "ECCENTRICITY": 0.0001202,
    "INCLINATION": 53.1611,
    "RA_OF_ASC_NODE": 101.8939,
    "ARG_OF_PERICENTER": 91.996,
    "MEAN_ANOMALY": 268.1179,
    "EPHEMERIS_TYPE": 0,
    "CLASSIFICATION_TYPE": "U",
    "NORAD_CAT_ID": 58965,
    "ELEMENT_SET_NO": 999,
    "REV_AT_EPOCH": 7548,
    "BSTAR": -4.3744e-05,
    "MEAN_MOTION_DOT": -1.654e-05,
    "MEAN_MOTION_DDOT": 0
  },
  {
    "OBJECT_NAME": "STARLINK-31449",
    "OBJECT_ID": "2024-031B",
    "EPOCH": "2025-06-14T13:05:54.312864",
    "MEAN_MOTION": 15.30184128,
    "ECCENTRICITY": 4.78e-05,
    "INCLINATION": 53.1666,
    "RA_OF_ASC_NODE": 101.8805,
    "ARG_OF_PERICENTER": 203.5513,
    "MEAN_ANOMALY": 156.5466,
    "EPHEMERIS_TYPE": 0,
    "CLASSIFICATION_TYPE": "U",
    "NORAD_CAT_ID": 58966,
    "ELEMENT_SET_NO": 999,
    "REV_AT_EPOCH": 7548,
    "BSTAR": -2.7892e-05,
    "MEAN_MOTION_DOT": -1.184e-05,
    "MEAN_MOTION_DDOT": 0
  },
  {
    "OBJECT_NAME": "STARLINK-31314",
    "OBJECT_ID": "2024-031C",
    "EPOCH": "2025-06-14T05:24:44.366400",
    "MEAN_MOTION": 15.30204658,
    "ECCENTRICITY": 0.0001917,
    "INCLINATION": 53.16,
    "RA_OF_ASC_NODE": 103.4348,
    "ARG_OF_PERICENTER": 76.8379,
    "MEAN_ANOMALY": 283.2836,
    "EPHEMERIS_TYPE": 0,
    "CLASSIFICATION_TYPE": "U",
    "NORAD_CAT_ID": 58967,
    "ELEMENT_SET_NO": 999,
    "REV_AT_EPOCH": 7543,
    "BSTAR": 5.5859e-05,
    "MEAN_MOTION_DOT": 1.295e-05,
    "MEAN_MOTION_DDOT": 0
  },
  {
    "OBJECT_NAME": "STARLINK-31356",
    "OBJECT_ID": "2024-031D",
    "EPOCH": "2025-06-14T04:27:49.192128",
    "MEAN_MOTION": 15.30188563,
    "ECCENTRICITY": 8.55e-05,
    "INCLINATION": 53.1632,
    "RA_OF_ASC_NODE": 76.0213,
    "ARG_OF_PERICENTER": 79.0131,
    "MEAN_ANOMALY": 281.0966,
    "EPHEMERIS_TYPE": 0,
    "CLASSIFICATION_TYPE": "U",
    "NORAD_CAT_ID": 58968,
    "ELEMENT_SET_NO": 999,
    "REV_AT_EPOCH": 7581,
    "BSTAR": -3.6103e-05,
    "MEAN_MOTION_DOT": -1.428e-05,
    "MEAN_MOTION_DDOT": 0
  },
  {
    "OBJECT_NAME": "STARLINK-31335",
    "OBJECT_ID": "2024-031E",
    "EPOCH": "2025-06-14T12:30:08.957664",
    "MEAN_MOTION": 15.30194926,
    "ECCENTRICITY": 0.0006729,
    "INCLINATION": 53.1613,
    "RA_OF_ASC_NODE": 99.597,
    "ARG_OF_PERICENTER": 253.2753,
    "MEAN_ANOMALY": 106.7509,
    "EPHEMERIS_TYPE": 0,
    "CLASSIFICATION_TYPE": "U",
    "NORAD_CAT_ID": 58969,
    "ELEMENT_SET_NO": 999,
    "REV_AT_EPOCH": 7551,
    "BSTAR": -7.4053e-05,
    "MEAN_MOTION_DOT": -2.556e-05,
    "MEAN_MOTION_DDOT": 0
  },
  {
    "OBJECT_NAME": "STARLINK-31368",
    "OBJECT_ID": "2024-031F",
    "EPOCH": "2025-06-14T13:13:30.243072",
    "MEAN_MOTION": 15.30187288,
    "ECCENTRICITY": 0.0001278,
    "INCLINATION": 53.1611,
    "RA_OF_ASC_NODE": 101.9145,
    "ARG_OF_PERICENTER": 102.0614,
    "MEAN_ANOMALY": 258.053,
    "EPHEMERIS_TYPE": 0,
    "CLASSIFICATION_TYPE": "U",
    "NORAD_CAT_ID": 58970,
    "ELEMENT_SET_NO": 999,
    "REV_AT_EPOCH": 7548,
    "BSTAR": 6.072e-05,
    "MEAN_MOTION_DOT": 1.439e-05,
    "MEAN_MOTION_DDOT": 0
  },
  {
    "OBJECT_NAME": "STARLINK-31333",
    "OBJECT_ID": "2024-031G",
    "EPOCH": "2025-06-14T19:21:44.775936",
    "MEAN_MOTION": 15.39611559,
    "ECCENTRICITY": 9.54e-05,
    "INCLINATION": 53.1599,
    "RA_OF_ASC_NODE": 90.7237,
    "ARG_OF_PERICENTER": 53.4381,
    "MEAN_ANOMALY": 306.6711,
    "EPHEMERIS_TYPE": 0,
    "CLASSIFICATION_TYPE": "U",
    "NORAD_CAT_ID": 58971,
    "ELEMENT_SET_NO": 999,
    "REV_AT_EPOCH": 7566,
    "BSTAR": -1.6064e-05,
    "MEAN_MOTION_DOT": -1.041e-05,
    "MEAN_MOTION_DDOT": 0
  },
  {
    "OBJECT_NAME": "STARLINK-31351",
    "OBJECT_ID": "2024-031H",
    "EPOCH": "2025-06-14T05:49:04.017504",
    "MEAN_MOTION": 15.30194278,
    "ECCENTRICITY": 0.0001257,
    "INCLINATION": 53.1609,
    "RA_OF_ASC_NODE": 103.5393,
    "ARG_OF_PERICENTER": 75.8925,
    "MEAN_ANOMALY": 284.2216,
    "EPHEMERIS_TYPE": 0,
    "CLASSIFICATION_TYPE": "U",
    "NORAD_CAT_ID": 58972,
    "ELEMENT_SET_NO": 999,
    "REV_AT_EPOCH": 7542,
    "BSTAR": 1.3951e-05,
    "MEAN_MOTION_DOT": 5.4e-07,
    "MEAN_MOTION_DDOT": 0
  },
  {
    "OBJECT_NAME": "STARLINK-31365",
    "OBJECT_ID": "2024-031J",
    "EPOCH": "2025-06-14T05:58:10.958880",
    "MEAN_MOTION": 15.30198675,
    "ECCENTRICITY": 0.0002524,
    "INCLINATION": 53.1571,
    "RA_OF_ASC_NODE": 103.5777,
    "ARG_OF_PERICENTER": 86.9758,
    "MEAN_ANOMALY": 273.1532,
    "EPHEMERIS_TYPE": 0,
    "CLASSIFICATION_TYPE": "U",
    "NORAD_CAT_ID": 58973,
    "ELEMENT_SET_NO": 999,
    "REV_AT_EPOCH": 7543,
    "BSTAR": 8.5312e-08,
    "MEAN_MOTION_DOT": -3.58e-06,
    "MEAN_MOTION_DDOT": 0
  },
  {
    "OBJECT_NAME": "STARLINK-31361",
    "OBJECT_ID": "2024-031K",
    "EPOCH": "2025-06-14T05:53:38.143104",
    "MEAN_MOTION": 15.30179782,
    "ECCENTRICITY": 0.000132,
    "INCLINATION": 53.1644,
    "RA_OF_ASC_NODE": 103.5565,
    "ARG_OF_PERICENTER": 89.1917,
    "MEAN_ANOMALY": 270.9235,
    "EPHEMERIS_TYPE": 0,
    "CLASSIFICATION_TYPE": "U",
    "NORAD_CAT_ID": 58974,
    "ELEMENT_SET_NO": 999,
    "REV_AT_EPOCH": 7543,
    "BSTAR": 6.3744e-05,
    "MEAN_MOTION_DOT": 1.528e-05,
    "MEAN_MOTION_DDOT": 0
  },
  {
    "OBJECT_NAME": "STARLINK-31369",
    "OBJECT_ID": "2024-031L",
    "EPOCH": "2025-06-14T06:02:43.394496",
    "MEAN_MOTION": 15.30201836,
    "ECCENTRICITY": 6.55e-05,
    "INCLINATION": 53.1617,
    "RA_OF_ASC_NODE": 103.5968,
    "ARG_OF_PERICENTER": 63.0857,
    "MEAN_ANOMALY": 297.021,
    "EPHEMERIS_TYPE": 0,
    "CLASSIFICATION_TYPE": "U",
    "NORAD_CAT_ID": 58975,
    "ELEMENT_SET_NO": 999,
    "REV_AT_EPOCH": 7541,
    "BSTAR": -1.8632e-06,
    "MEAN_MOTION_DOT": -4.14e-06,
    "MEAN_MOTION_DDOT": 0
  },
  {
    "OBJECT_NAME": "STARLINK-31324",
    "OBJECT_ID": "2024-031M",
    "EPOCH": "2025-06-14T12:23:30.590592",
    "MEAN_MOTION": 15.30195667,
    "ECCENTRICITY": 5.59e-05,
    "INCLINATION": 53.1521,
    "RA_OF_ASC_NODE": 102.4053,
    "ARG_OF_PERICENTER": 112.1288,
    "MEAN_ANOMALY": 247.9772,
    "EPHEMERIS_TYPE": 0,
    "CLASSIFICATION_TYPE": "U",
    "NORAD_CAT_ID": 58976,
    "ELEMENT_SET_NO": 999,
    "REV_AT_EPOCH": 7545,
    "BSTAR": 1.9325e-05,
    "MEAN_MOTION_DOT": 2.14e-06,
    "MEAN_MOTION_DDOT": 0
  },
  {
    "OBJECT_NAME": "STARLINK-31358",
    "OBJECT_ID": "2024-031N",
    "EPOCH": "2025-06-14T13:10:27.790464",
    "MEAN_MOTION": 15.30186001,
    "ECCENTRICITY": 7.08e-05,
    "INCLINATION": 53.1649,
    "RA_OF_ASC_NODE": 101.8859,
    "ARG_OF_PERICENTER": 107.2205,
    "MEAN_ANOMALY": 252.8874,
    "EPHEMERIS_TYPE": 0,
    "CLASSIFICATION_TYPE": "U",
    "NORAD_CAT_ID": 58977,
    "ELEMENT_SET_NO": 999,
    "REV_AT_EPOCH": 7546,
    "BSTAR": -2.1556e-05,
    "MEAN_MOTION_DOT": -9.97e-06,
    "MEAN_MOTION_DDOT": 0
  }
]