STARLINK-31293          
1 58952U 24027X   25165.27775314 -.00000121  00000+0  80476-5 0  9993
2 58952  53.1628 116.3378 0001511  90.7647 269.3527 15.30193222 76236
STARLINK-31373          
1 58965U 24031A   25165.54788693 -.00001654  00000+0 -43744-4 0  9995
2 58965  53.1611 101.8939 0001202  91.9960 268.1179 15.30179331 75483
STARLINK-31449          
1 58966U 24031B   25165.54576751 -.00001184  00000+0 -27892-4 0  9990
2 58966  53.1666 101.8805 0000478 203.5513 156.5466 15.30184128 75484
STARLINK-31314          
1 58967U 24031C   25165.22551350  .00001295  00000+0  55859-4 0  9999
2 58967  53.1600 103.4348 0001917  76.8379 283.2836 15.30204658 75438
STARLINK-31356          
1 58968U 24031D   25165.18598602 -.00001428  00000+0 -36103-4 0  9997
2 58968  53.1632  76.0213 0000855  79.0131 281.0966 15.30188563 75819
STARLINK-31335          
1 58969U 24031E   25165.52093701 -.00002556  00000+0 -74053-4 0  9995
2 58969  53.1613  99.5970 0006729 253.2753 106.7509 15.30194926 75514
STARLINK-31368          
1 58970U 24031F   25165.55104448  .00001439  00000+0  60720-4 0  9994
2 58970  53.1611 101.9145 0001278 102.0614 258.0530 15.30187288 75481
STARLINK-31333          
1 58971U 24031G   25165.80676824 -.00001041  00000+0 -16064-4 0  9998
2 58971  53.1599  90.7237 0000954  53.4381 306.6711 15.39611559 75667
STARLINK-31351          
1 58972U 24031H   25165.24240761  .00000054  00000+0  13951-4 0  9997
2 58972  53.1609 103.5393 0001257  75.8925 284.2216 15.30194278 75425
STARLINK-31365          
1 58973U 24031J   25165.24873795 -.00000358  00000+0  85312-7 0  9998
2 58973  53.1571 103.5777 0002524  86.9758 273.1532 15.30198675 75439
STARLINK-31361          
1 58974U 24031K   25165.24558036  .00001528  00000+0  63744-4 0  9998
2 58974  53.1644 103.5565 0001320  89.1917 270.9235 15.30179782 75434
STARLINK-31369          
1 58975U 24031L   25165.25189114 -.00000414  00000+0 -18632-5 0  9999
2 58975  53.1617 103.5968 0000655  63.0857 297.0210 15.30201836 75413
STARLINK-31324          
1 58976U 24031M   25165.51632628  .00000214  00000+0  19325-4 0  9997
2 58976  53.1521 102.4053 0000559 112.1288 247.9772 15.30195667 75453
STARLINK-31358          
1 58977U 24031N   25165.54893276 -.00000997  00000+0 -21556-4 0  9998
2 58977  53.1649 101.8859 0000708 107.2205 252.8874 15.30186001 75463
